Satellite_500_8_22
1 00722U 00000A   23121.00000000  .00000000  00000+0  12222-5 0  9993
2 00722  60.0000 210.0000 0002000  82.5000 315.0000 15.24308387  9996
Satellite_500_8_23
1 00723U 00000A   23121.00000000  .00000000  00000+0  12222-5 0  9994
2 00723  60.0000 210.0000 0002000  82.5000 330.0000 15.24308387  9994
Satellite_500_8_24
1 00724U 00000A   23121.00000000  .00000000  00000+0  12222-5 0  9995
2 00724  60.0000 210.0000 0002000  82.5000 345.0000 15.24308387  9991
Satellite_500_9_1
1 00801U 00000A   23121.00000000  .00000000  00000+0  12222-5 0  9991
2 00801  60.0000 240.0000 0002000  90.0000   0.0000 15.24308387  9992
Satellite_500_9_2
1 00802U 00000A   23121.00000000  .00000000  00000+0  12222-5 0  9992
2 00802  60.0000 240.0000 0002000  90.0000  15.0000 15.24308387  9999
Satellite_500_9_3
1 00803U 00000A   23121.00000000  .00000000  00000+0  12222-5 0  9993
2 00803  60.0000 240.0000 0002000  90.0000  30.0000 15.24308387  9997
Satellite_500_9_4
1 00804U 00000A   23121.00000000  .00000000  00000+0  12222-5 0  9994
2 00804  60.0000 240.0000 0002000  90.0000  45.0000 15.24308387  9994
Satellite_500_9_5
1 00805U 00000A   23121.00000000  .00000000  00000+0  12222-5 0  9995
2 00805  60.0000 240.0000 0002000  90.0000  60.0000 15.24308387  9992
Satellite_500_9_6
1 00806U 00000A   23121.00000000  .00000000  00000+0  12222-5 0  9996
2 00806  60.0000 240.0000 0002000  90.0000  75.0000 15.24308387  9999
Satellite_500_9_7
1 00807U 00000A   23121.00000000  .00000000  00000+0  12222-5 0  9997
2 00807  60.0000 240.0000 0002000  90.0000  90.0000 15.24308387  9997
Satellite_500_9_8
1 00808U 00000A   23121.00000000  .00000000  00000+0  12222-5 0  9998
2 00808  60.0000 240.0000 0002000  90.0000 105.0000 15.24308387  9995
Satellite_500_9_9
1 00809U 00000A   23121.00000000  .00000000  00000+0  12222-5 0  9999
2 00809  60.0000 240.0000 0002000  90.0000 120.0000 15.24308387  9993
Satellite_500_9_10
1 00810U 00000A   23121.00000000  .00000000  00000+0  12222-5 0  9991
2 00810  60.0000 240.0000 0002000  90.0000 135.0000 15.24308387  9991
Satellite_500_9_11
1 00811U 00000A   23121.00000000  .00000000  00000+0  12222-5 0  9992
2 00811  60.0000 240.0000 0002000  90.0000 150.0000 15.24308387  9999
Satellite_500_9_12
1 00812U 00000A   23121.00000000  .00000000  00000+0  12222-5 0  9993
2 00812  60.0000 240.0000 0002000  90.0000 165.0000 15.24308387  9996
Satellite_500_9_13
1 00813U 00000A   23121.00000000  .00000000  00000+0  12222-5 0  9994
2 00813  60.0000 240.0000 0002000  90.0000 180.0000 15.24308387  9994
Satellite_500_9_14
1 00814U 00000A   23121.00000000  .00000000  00000+0  12222-5 0  9995
2 00814  60.0000 240.0000 0002000  90.0000 195.0000 15.24308387  9991
Satellite_500_9_15
1 00815U 00000A   23121.00000000  .00000000  00000+0  12222-5 0  9996
2 00815  60.0000 240.0000 0002000  90.0000 210.0000 15.24308387  9990
Satellite_500_9_16
1 00816U 00000A   23121.00000000  .00000000  00000+0  12222-5 0  9997
2 00816  60.0000 240.0000 0002000  90.0000 225.0000 15.24308387  9997
Satellite_500_9_17
1 00817U 00000A   23121.00000000  .00000000  00000+0  12222-5 0  9998
2 00817  60.0000 240.0000 0002000  90.0000 240.0000 15.24308387  9995
Satellite_500_9_18
1 00818U 00000A   23121.00000000  .00000000  00000+0  12222-5 0  9999
2 00818  60.0000 240.0000 0002000  90.0000 255.0000 15.24308387  9992
Satellite_500_9_19
1 00819U 00000A   23121.00000000  .00000000  00000+0  12222-5 0  9990
2 00819  60.0000 240.0000 0002000  90.0000 270.0000 15.24308387  9990
Satellite_500_9_20
1 00820U 00000A   23121.00000000  .00000000  00000+0  12222-5 0  9992
2 00820  60.0000 240.0000 0002000  90.0000 285.0000 15.24308387  9998
Satellite_500_9_21
1 00821U 00000A   23121.00000000  .00000000  00000+0  12222-5 0  9993
2 00821  60.0000 240.0000 0002000  90.0000 300.0000 15.24308387  9997
Satellite_500_9_22
1 00822U 00000A   23121.00000000  .00000000  00000+0  12222-5 0  9994
2 00822  60.0000 240.0000 0002000  90.0000 315.0000 15.24308387  9994
Satellite_500_9_23
1 00823U 00000A   23121.00000000  .00000000  00000+0  12222-5 0  9995
2 00823  60.0000 240.0000 0002000  90.0000 330.0000 15.24308387  9992
Satellite_500_9_24
1 00824U 00000A   23121.00000000  .00000000  00000+0  12222-5 0  9996
2 00824  60.0000 240.0000 0002000  90.0000 345.0000 15.24308387  9999
Satellite_500_10_1
1 00901U 00000A   23121.00000000  .00000000  00000+0  12222-5 0  9992
2 00901  60.0000 270.0000 0002000  82.5000   0.0000 15.24308387  9992
Satellite_500_10_2
1 00902U 00000A   23121.00000000  .00000000  00000+0  12222-5 0  9993
2 00902  60.0000 270.0000 0002000  82.5000  15.0000 15.24308387  9999
Satellite_500_10_3
1 00903U 00000A   23121.00000000  .00000000  00000+0  12222-5 0  9994
2 00903  60.0000 270.0000 0002000  82.5000  30.0000 15.24308387  9997
Satellite_500_10_4
1 00904U 00000A   23121.00000000  .00000000  00000+0  12222-5 0  9995
2 00904  60.0000 270.0000 0002000  82.5000  45.0000 15.24308387  9994
Satellite_500_10_5
1 00905U 00000A   23121.00000000  .00000000  00000+0  12222-5 0  9996
2 00905  60.0000 270.0000 0002000  82.5000  60.0000 15.24308387  9992
Satellite_500_10_6
1 00906U 00000A   23121.00000000  .00000000  00000+0  12222-5 0  9997
2 00906  60.0000 270.0000 0002000  82.5000  75.0000 15.24308387  9999
Satellite_500_10_7
1 00907U 00000A   23121.00000000  .00000000  00000+0  12222-5 0  9998
2 00907  60.0000 270.0000 0002000  82.5000  90.0000 15.24308387  9997
Satellite_500_10_8
1 00908U 00000A   23121.00000000  .00000000  00000+0  12222-5 0  9999
2 00908  60.0000 270.0000 0002000  82.5000 105.0000 15.24308387  9995
Satellite_500_10_9
1 00909U 00000A   23121.00000000  .00000000  00000+0  12222-5 0  9990
2 00909  60.0000 270.0000 0002000  82.5000 120.0000 15.24308387  9993
Satellite_500_10_10
1 00910U 00000A   23121.00000000  .00000000  00000+0  12222-5 0  9992
2 00910  60.0000 270.0000 0002000  82.5000 135.0000 15.24308387  9991
Satellite_500_10_11
1 00911U 00000A   23121.00000000  .00000000  00000+0  12222-5 0  9993
2 00911  60.0000 270.0000 0002000  82.5000 150.0000 15.24308387  9999
Satellite_500_10_12
1 00912U 00000A   23121.00000000  .00000000  00000+0  12222-5 0  9994
2 00912  60.0000 270.0000 0002000  82.5000 165.0000 15.24308387  9996
Satellite_500_10_13
1 00913U 00000A   23121.00000000  .00000000  00000+0  12222-5 0  9995
2 00913  60.0000 270.0000 0002000  82.5000 180.0000 15.24308387  9994
Satellite_500_10_14
1 00914U 00000A   23121.00000000  .00000000  00000+0  12222-5 0  9996
2 00914  60.0000 270.0000 0002000  82.5000 195.0000 15.24308387  9991
Satellite_500_10_15
1 00915U 00000A   23121.00000000  .00000000  00000+0  12222-5 0  9997
2 00915  60.0000 270.0000 0002000  82.5000 210.0000 15.24308387  9990
Satellite_500_10_16
1 00916U 00000A   23121.00000000  .00000000  00000+0  12222-5 0  9998
2 00916  60.0000 270.0000 0002000  82.5000 225.0000 15.24308387  9997
Satellite_500_10_17
1 00917U 00000A   23121.00000000  .00000000  00000+0  12222-5 0  9999
2 00917  60.0000 270.0000 0002000  82.5000 240.0000 15.24308387  9995
Satellite_500_10_18
1 00918U 00000A   23121.00000000  .00000000  00000+0  12222-5 0  9990
2 00918  60.0000 270.0000 0002000  82.5000 255.0000 15.24308387  9992
Satellite_500_10_19
1 00919U 00000A   23121.00000000  .00000000  00000+0  12222-5 0  9991
2 00919  60.0000 270.0000 0002000  82.5000 270.0000 15.24308387  9990
Satellite_500_10_20
1 00920U 00000A   23121.00000000  .00000000  00000+0  12222-5 0  9993
2 00920  60.0000 270.0000 0002000  82.5000 285.0000 15.24308387  9998
Satellite_500_10_21
1 00921U 00000A   23121.00000000  .00000000  00000+0  12222-5 0  9994
2 00921  60.0000 270.0000 0002000  82.5000 300.0000 15.24308387  9997
Satellite_500_10_22
1 00922U 00000A   23121.00000000  .00000000  00000+0  12222-5 0  9995
2 00922  60.0000 270.0000 0002000  82.5000 315.0000 15.24308387  9994
Satellite_500_10_23
1 00923U 00000A   23121.00000000  .00000000  00000+0  12222-5 0  9996
2 00923  60.0000 270.0000 0002000  82.5000 330.0000 15.24308387  9992
Satellite_500_10_24
1 00924U 00000A   23121.00000000  .00000000  00000+0  12222-5 0  9997
2 00924  60.0000 270.0000 0002000  82.5000 345.0000 15.24308387  9999
Satellite_500_11_1
1 01001U 00000A   23121.00000000  .00000000  00000+0  12222-5 0  9994
2 01001  60.0000 300.0000 0002000  90.0000   0.0000 15.24308387  9992
Satellite_500_11_2
1 01002U 00000A   23121.00000000  .00000000  00000+0  12222-5 0  9995
2 01002  60.0000 300.0000 0002000  90.0000  15.0000 15.24308387  9999
Satellite_500_11_3
1 01003U 00000A   23121.00000000  .00000000  00000+0  12222-5 0  9996
2 01003  60.0000 300.0000 0002000  90.0000  30.0000 15.24308387  9997
Satellite_500_11_4
1 01004U 00000A   23121.00000000  .00000000  00000+0  12222-5 0  9997
2 01004  60.0000 300.0000 0002000  90.0000  45.0000 15.24308387  9994
Satellite_500_11_5
1 01005U 00000A   23121.00000000  .00000000  00000+0  12222-5 0  9998
2 01005  60.0000 300.0000 0002000  90.0000  60.0000 15.24308387  9992
Satellite_500_11_6
1 01006U 00000A   23121.00000000  .00000000  00000+0  12222-5 0  9999
2 01006  60.0000 300.0000 0002000  90.0000  75.0000 15.24308387  9999
Satellite_500_11_7
1 01007U 00000A   23121.00000000  .00000000  00000+0  12222-5 0  9990
2 01007  60.0000 300.0000 0002000  90.0000  90.0000 15.24308387  9997
Satellite_500_11_8
1 01008U 00000A   23121.00000000  .00000000  00000+0  12222-5 0  9991
2 01008  60.0000 300.0000 0002000  90.0000 105.0000 15.24308387  9995
Satellite_500_11_9
1 01009U 00000A   23121.00000000  .00000000  00000+0  12222-5 0  9992
2 01009  60.0000 300.0000 0002000  90.0000 120.0000 15.24308387  9993
Satellite_500_11_10
1 01010U 00000A   23121.00000000  .00000000  00000+0  12222-5 0  9994
2 01010  60.0000 300.0000 0002000  90.0000 135.0000 15.24308387  9991
Satellite_500_11_11
1 01011U 00000A   23121.00000000  .00000000  00000+0  12222-5 0  9995
2 01011  60.0000 300.0000 0002000  90.0000 150.0000 15.24308387  9999
